CALSPHERE 1             
1 00900U 64063C   26095.17875617  .00000865  00000+0  87203-3 0  9993
2 00900  90.2192  70.0576 0026433 148.0911 230.5597 13.76535489 61381
CALSPHERE 2             
1 00902U 64063E   26094.95903808  .00000037  00000+0  42222-4 0  9998
2 00902  90.2310  74.0452 0020636  80.9555 339.7407 13.52894434846362
LCS 1                   
1 01361U 65034C   26095.16475932  .00000011  00000+0  33345-3 0  9990
2 01361  32.1468 350.4066 0013330 223.6116 136.3328  9.89309938202651
TEMPSAT 1               
1 01512U 65065E   26095.08477042  .00000051  00000+0  81692-4 0  9990
2 01512  89.9987 212.5807 0071567  94.0691  93.0071 13.33590801950301
CALSPHERE 4A            
1 01520U 65065H   26094.99752081  .00000113  00000+0  20030-3 0  9994
2 01520  89.8983 123.2173 0067978 311.2869 132.3464 13.36264541952937
OPS 5712 (P/L 160)      
1 02826U 67053A   26095.32375439  .00012629  00000+0  18066-2 0  9999
2 02826  69.9177 216.7398 0002588 222.8580 137.2366 14.76761188 55473
OPS 5712 (P/L 153)      
1 02874U 67053H   26095.22483084  .00000046  00000+0  71276-4 0  9991
2 02874  69.9723 271.6933 0009896 284.6238  75.3770 13.96817520996594
RIGIDSPHERE 2 (LCS 4)   
1 05398U 71067E   26095.18790725  .00001069  00000+0  34140-3 0  9997
2 05398  87.6277 359.0713 0061972 113.9868 246.7836 14.37785895863395
COSMOS 2493 (SKRL-756 1)
1 39490U 13078A   26095.20149833  .00005006  00000+0  38151-3 0  9997
2 39490  82.4139 332.5813 0014106 126.4383 233.8145 15.01783166667001
COSMOS 2494 (SKRL-756 2)
1 39491U 13078B   26095.19622610  .00004360  00000+0  30901-3 0  9992
2 39491  82.4123 322.2794 0017724  92.9036 267.4219 15.04436718667837
